start=new Date('2021-09-08T00:00:00.000Z').valueOf();
sats=[{"TLE_LINE2":"2 47736  53.0584  22.0598 0001775 108.7611 251.3571 15.06405166 30128","MEAN_MOTION":"15.06405166","RA_OF_ASC_NODE":"22.0598","OBJECT_NAME":"STARLINK-2147","TLE_LINE1":"1 47736U 21017Q   21250.63274009 -.00000788  00000-0 -33992-4 0  9994","COUNTRY_CODE":"US","MEAN_ELEMENT_THEORY":"SGP4","REV_AT_EPOCH":"3012","MEAN_MOTION_DDOT":"0.0000000000000","PERIOD":"95.592","EPOCH":"2021-09-07T15:11:08.743776","SITE":"AFETR","OBJECT_TYPE":"PAYLOAD","DECAY_DATE":null,"OBJECT_ID":"2021-017Q","RCS_SIZE":"LARGE","FILE":"3110443","EPHEMERIS_TYPE":"0","ELEMENT_SET_NO":"999","BSTAR":"-0.00003399200000","SEMIMAJOR_AXIS":"6925.333","NORAD_CAT_ID":"47736","ECCENTRICITY":"0.00017750","CENTER_NAME":"EARTH","APOAPSIS":"548.427","PERIAPSIS":"545.968","GP_ID":"184284544","CLASSIFICATION_TYPE":"U","MEAN_MOTION_DOT":"-0.00000788","LAUNCH_DATE":"2021-03-04","TIME_SYSTEM":"UTC","REF_FRAME":"TEME","ARG_OF_PERICENTER":"108.7611","INCLINATION":"53.0584","MEAN_ANOMALY":"251.3571"},{"NORAD_CAT_ID":"47737","ECCENTRICITY":"0.00051650","BSTAR":"0.00004548500000","SEMIMAJOR_AXIS":"6727.826","GP_ID":"184260386","CLASSIFICATION_TYPE":"U","MEAN_MOTION_DOT":"0.00005773","APOAPSIS":"353.166","CENTER_NAME":"EARTH","PERIAPSIS":"346.216","REF_FRAME":"TEME","LAUNCH_DATE":"2021-03-04","TIME_SYSTEM":"UTC","ARG_OF_PERICENTER":"346.8425","MEAN_ANOMALY":"13.2457","INCLINATION":"53.0436","RA_OF_ASC_NODE":"333.8642","MEAN_MOTION":"15.73224207","TLE_LINE2":"2 47737  53.0436 333.8642 0005165 346.8425  13.2457 15.73224207 30108","TLE_LINE1":"1 47737U 21017R   21250.52650823  .00005773  00000-0  45485-4 0  9992","OBJECT_NAME":"STARLINK-2148","DECAY_DATE":null,"OBJECT_ID":"2021-017R","OBJECT_TYPE":"PAYLOAD","SITE":"AFETR","EPOCH":"2021-09-07T12:38:10.311072","RCS_SIZE":"LARGE","MEAN_ELEMENT_THEORY":"SGP4","COUNTRY_CODE":"US","REV_AT_EPOCH":"3010","PERIOD":"91.532","MEAN_MOTION_DDOT":"0.0000000000000","ELEMENT_SET_NO":"999","EPHEMERIS_TYPE":"0","FILE":"3110334"},{"TLE_LINE1":"1 47738U 21017S   21250.38209952 -.00000112  00000-0  11594-4 0  9997","OBJECT_NAME":"STARLINK-2149","RA_OF_ASC_NODE":"23.2133","MEAN_MOTION":"15.06399440","TLE_LINE2":"2 47738  53.0557  23.2133 0009243 116.6966 243.4971 15.06399440 29409","ELEMENT_SET_NO":"999","FILE":"3110334","EPHEMERIS_TYPE":"0","EPOCH":"2021-09-07T09:10:13.398528","SITE":"AFETR","OBJECT_TYPE":"PAYLOAD","OBJECT_ID":"2021-017S","DECAY_DATE":null,"RCS_SIZE":"LARGE","COUNTRY_CODE":"US","MEAN_ELEMENT_THEORY":"SGP4","REV_AT_EPOCH":"2940","MEAN_MOTION_DDOT":"0.0000000000000","PERIOD":"95.592","GP_ID":"184259985","MEAN_MOTION_DOT":"-0.00000112","CLASSIFICATION_TYPE":"U","APOAPSIS":"553.616","CENTER_NAME":"EARTH","PERIAPSIS":"540.814","NORAD_CAT_ID":"47738","ECCENTRICITY":"0.00092430","BSTAR":"0.00001159400000","SEMIMAJOR_AXIS":"6925.350","ARG_OF_PERICENTER":"116.6966","INCLINATION":"53.0557","MEAN_ANOMALY":"243.4971","REF_FRAME":"TEME","LAUNCH_DATE":"2021-03-04","TIME_SYSTEM":"UTC"},{"RA_OF_ASC_NODE":"46.7999","TLE_LINE2":"2 47739  53.0571  46.7999 0002162  87.1452 272.9784 15.06402836 29785","MEAN_MOTION":"15.06402836","TLE_LINE1":"1 47739U 21017T   21250.69493939 -.00000698  00000-0 -27952-4 0  9997","OBJECT_NAME":"STARLINK-2150","RCS_SIZE":"LARGE","DECAY_DATE":null,"OBJECT_ID":"2021-017T","SITE":"AFETR","OBJECT_TYPE":"PAYLOAD","EPOCH":"2021-09-07T16:40:42.763296","MEAN_MOTION_DDOT":"0.0000000000000","PERIOD":"95.592","MEAN_ELEMENT_THEORY":"SGP4","COUNTRY_CODE":"US","REV_AT_EPOCH":"2978","ELEMENT_SET_NO":"999","EPHEMERIS_TYPE":"0","FILE":"3110443","ECCENTRICITY":"0.00021620","NORAD_CAT_ID":"47739","SEMIMAJOR_AXIS":"6925.340","BSTAR":"-0.00002795200000","CLASSIFICATION_TYPE":"U","MEAN_MOTION_DOT":"-0.00000698","GP_ID":"184284294","PERIAPSIS":"545.708","APOAPSIS":"548.702","CENTER_NAME":"EARTH","REF_FRAME":"TEME","TIME_SYSTEM":"UTC","LAUNCH_DATE":"2021-03-04","MEAN_ANOMALY":"272.9784","INCLINATION":"53.0571","ARG_OF_PERICENTER":"87.1452"},{"MEAN_ANOMALY":"265.9143","INCLINATION":"53.0572","ARG_OF_PERICENTER":"94.2049","REF_FRAME":"TEME","TIME_SYSTEM":"UTC","LAUNCH_DATE":"2021-03-04","CLASSIFICATION_TYPE":"U","MEAN_MOTION_DOT":"-0.00000609","GP_ID":"184284045","PERIAPSIS":"546.006","APOAPSIS":"548.464","CENTER_NAME":"EARTH","ECCENTRICITY":"0.00017750","NORAD_CAT_ID":"47740","SEMIMAJOR_AXIS":"6925.370","BSTAR":"-0.00002196500000","ELEMENT_SET_NO":"999","EPHEMERIS_TYPE":"0","FILE":"3110443","RCS_SIZE":"LARGE","DECAY_DATE":null,"OBJECT_ID":"2021-017U","OBJECT_TYPE":"PAYLOAD","SITE":"AFETR","EPOCH":"2021-09-07T19:24:35.248320","MEAN_MOTION_DDOT":"0.0000000000000","PERIOD":"95.593","COUNTRY_CODE":"US","REV_AT_EPOCH":"3000","MEAN_ELEMENT_THEORY":"SGP4","TLE_LINE1":"1 47740U 21017U   21250.80874130 -.00000609  00000-0 -21965-4 0  9998","OBJECT_NAME":"STARLINK-2152","RA_OF_ASC_NODE":"31.2905","TLE_LINE2":"2 47740  53.0572  31.2905 0001775  94.2049 265.9143 15.06392934 30009","MEAN_MOTION":"15.06392934"},{"REF_FRAME":"TEME","LAUNCH_DATE":"2021-03-04","TIME_SYSTEM":"UTC","ARG_OF_PERICENTER":"93.2000","INCLINATION":"53.0571","MEAN_ANOMALY":"266.9171","NORAD_CAT_ID":"47741","ECCENTRICITY":"0.00015920","BSTAR":"-0.00002408700000","SEMIMAJOR_AXIS":"6925.341","GP_ID":"184282793","CLASSIFICATION_TYPE":"U","MEAN_MOTION_DOT":"-0.00000640","APOAPSIS":"548.308","CENTER_NAME":"EARTH","PERIAPSIS":"546.103","SITE":"AFETR","OBJECT_TYPE":"PAYLOAD","EPOCH":"2021-09-07T16:34:44.653440","DECAY_DATE":null,"OBJECT_ID":"2021-017V","RCS_SIZE":"LARGE","MEAN_ELEMENT_THEORY":"SGP4","COUNTRY_CODE":"US","REV_AT_EPOCH":"2994","PERIOD":"95.592","MEAN_MOTION_DDOT":"0.0000000000000","ELEMENT_SET_NO":"999","FILE":"3110443","EPHEMERIS_TYPE":"0","RA_OF_ASC_NODE":"31.8166","TLE_LINE2":"2 47741  53.0571  31.8166 0001592  93.2000 266.9171 15.06402561 29948","MEAN_MOTION":"15.06402561","TLE_LINE1":"1 47741U 21017V   21250.69079460 -.00000640  00000-0 -24087-4 0  9992","OBJECT_NAME":"STARLINK-2154"},{"REF_FRAME":"TEME","TIME_SYSTEM":"UTC","LAUNCH_DATE":"2021-03-04","MEAN_ANOMALY":"244.3046","INCLINATION":"53.0584","ARG_OF_PERICENTER":"115.8092","ECCENTRICITY":"0.00014430","NORAD_CAT_ID":"47742","SEMIMAJOR_AXIS":"6925.353","BSTAR":"0.00000642710000","CLASSIFICATION_TYPE":"U","MEAN_MOTION_DOT":"-0.00000186","GP_ID":"184283543","PERIAPSIS":"546.219","APOAPSIS":"548.218","CENTER_NAME":"EARTH","RCS_SIZE":"LARGE","OBJECT_ID":"2021-017W","DECAY_DATE":null,"SITE":"AFETR","EPOCH":"2021-09-07T20:03:03.661920","OBJECT_TYPE":"PAYLOAD","PERIOD":"95.592","MEAN_MOTION_DDOT":"0.0000000000000","REV_AT_EPOCH":"3015","COUNTRY_CODE":"US","MEAN_ELEMENT_THEORY":"SGP4","ELEMENT_SET_NO":"999","EPHEMERIS_TYPE":"0","FILE":"3110443","RA_OF_ASC_NODE":"21.1605","TLE_LINE2":"2 47742  53.0584  21.1605 0001443 115.8092 244.3046 15.06398426 30150","MEAN_MOTION":"15.06398426","TLE_LINE1":"1 47742U 21017W   21250.83545905 -.00000186  00000-0  64271-5 0  9995","OBJECT_NAME":"STARLINK-2156"},{"OBJECT_NAME":"STARLINK-2157","TLE_LINE1":"1 47743U 21017X   21250.86125920 -.00001284  00000-0 -67350-4 0  9991","MEAN_MOTION":"15.06400356","TLE_LINE2":"2 47743  53.0569  21.0351 0001442 113.3229 246.7912 15.06400356 30137","RA_OF_ASC_NODE":"21.0351","FILE":"3110443","EPHEMERIS_TYPE":"0","ELEMENT_SET_NO":"999","MEAN_ELEMENT_THEORY":"SGP4","COUNTRY_CODE":"US","REV_AT_EPOCH":"3013","PERIOD":"95.592","MEAN_MOTION_DDOT":"0.0000000000000","SITE":"AFETR","EPOCH":"2021-09-07T20:40:12.794880","OBJECT_TYPE":"PAYLOAD","DECAY_DATE":null,"OBJECT_ID":"2021-017X","RCS_SIZE":"LARGE","CENTER_NAME":"EARTH","APOAPSIS":"548.211","PERIAPSIS":"546.214","GP_ID":"184283795","MEAN_MOTION_DOT":"-0.00001284","CLASSIFICATION_TYPE":"U","BSTAR":"-0.00006735000000","SEMIMAJOR_AXIS":"6925.347","NORAD_CAT_ID":"47743","ECCENTRICITY":"0.00014420","ARG_OF_PERICENTER":"113.3229","INCLINATION":"53.0569","MEAN_ANOMALY":"246.7912","LAUNCH_DATE":"2021-03-04","TIME_SYSTEM":"UTC","REF_FRAME":"TEME"},{"RA_OF_ASC_NODE":"23.2265","MEAN_MOTION":"15.06402530","TLE_LINE2":"2 47744  53.0582  23.2265 0001489 110.7658 249.3491 15.06402530 30080","TLE_LINE1":"1 47744U 21017Y   21250.37472399 -.00001169  00000-0 -59575-4 0  9995","OBJECT_NAME":"STARLINK-2158","RCS_SIZE":"LARGE","EPOCH":"2021-09-07T08:59:36.152736","SITE":"AFETR","OBJECT_TYPE":"PAYLOAD","OBJECT_ID":"2021-017Y","DECAY_DATE":null,"MEAN_MOTION_DDOT":"0.0000000000000","PERIOD":"95.592","COUNTRY_CODE":"US","REV_AT_EPOCH":"3008","MEAN_ELEMENT_THEORY":"SGP4","ELEMENT_SET_NO":"999","FILE":"3110255","EPHEMERIS_TYPE":"0","ECCENTRICITY":"0.00014890","NORAD_CAT_ID":"47744","SEMIMAJOR_AXIS":"6925.341","BSTAR":"-0.00005957500000","MEAN_MOTION_DOT":"-0.00001169","CLASSIFICATION_TYPE":"U","GP_ID":"184256023","PERIAPSIS":"546.175","APOAPSIS":"548.237","CENTER_NAME":"EARTH","REF_FRAME":"TEME","TIME_SYSTEM":"UTC","LAUNCH_DATE":"2021-03-04","INCLINATION":"53.0582","MEAN_ANOMALY":"249.3491","ARG_OF_PERICENTER":"110.7658"},{"ELEMENT_SET_NO":"999","FILE":"3110443","EPHEMERIS_TYPE":"0","RCS_SIZE":"LARGE","OBJECT_TYPE":"PAYLOAD","SITE":"AFETR","EPOCH":"2021-09-07T17:38:25.891296","OBJECT_ID":"2021-017Z","DECAY_DATE":null,"PERIOD":"95.593","MEAN_MOTION_DDOT":"0.0000000000000","REV_AT_EPOCH":"2994","COUNTRY_CODE":"US","MEAN_ELEMENT_THEORY":"SGP4","TLE_LINE1":"1 47745U 21017Z   21250.73502189 -.00000586  00000-0 -20423-4 0  9999","OBJECT_NAME":"STARLINK-2159","RA_OF_ASC_NODE":"31.6198","TLE_LINE2":"2 47745  53.0576  31.6198 0001735 102.6086 257.5097 15.06392694 29946","MEAN_MOTION":"15.06392694","INCLINATION":"53.0576","MEAN_ANOMALY":"257.5097","ARG_OF_PERICENTER":"102.6086","REF_FRAME":"TEME","TIME_SYSTEM":"UTC","LAUNCH_DATE":"2021-03-04","MEAN_MOTION_DOT":"-0.00000586","CLASSIFICATION_TYPE":"U","GP_ID":"184283293","PERIAPSIS":"546.034","APOAPSIS":"548.438","CENTER_NAME":"EARTH","ECCENTRICITY":"0.00017350","NORAD_CAT_ID":"47745","SEMIMAJOR_AXIS":"6925.371","BSTAR":"-0.00002042300000"}];
